{
    "links": {
        "self": "http://www.neowsapp.com/rest/v1/neo/3454737?api_key=iIulBulltgU6a56xZRHN4H3l9WmuAYTsLGpBGhQ2"
    },
    "id": "3454737",
    "neo_reference_id": "3454737",
    "name": "(2009 FA5)",
    "designation": "2009 FA5",
    "nasa_jpl_url": "http://ssd.jpl.nasa.gov/sbdb.cgi?sstr=3454737",
    "absolute_magnitude_h": 26.0,
    "estimated_diameter": {
        "kilometers": {
            "estimated_diameter_min": 0.0167708462,
            "estimated_diameter_max": 0.0375007522
        },
        "meters": {
            "estimated_diameter_min": 16.7708462163,
            "estimated_diameter_max": 37.5007521798
        },
        "miles": {
            "estimated_diameter_min": 0.0104209175,
            "estimated_diameter_max": 0.0233018799
        },
        "feet": {
            "estimated_diameter_min": 55.0224631002,
            "estimated_diameter_max": 123.0339677816
        }
    },
    "is_potentially_hazardous_asteroid": false,
    "close_approach_data": [
        {
            "close_approach_date": "2009-03-25",
            "close_approach_date_full": "2009-Mar-25 19:32",
            "epoch_date_close_approach": 1238009520000,
            "relative_velocity": {
                "kilometers_per_second": "7.7841355285",
                "kilometers_per_hour": "28022.8879027524",
                "miles_per_hour": "17412.3327637963"
            },
            "miss_distance": {
                "astronomical": "0.0406913015",
                "lunar": "15.8289162835",
                "kilometers": "6087332.031927805",
                "miles": "3782492.728121509"
            },
            "orbiting_body": "Earth"
        }
    ],
    "orbital_data": {
        "orbit_id": "7",
        "orbit_determination_date": "2017-04-06 09:00:57",
        "first_observation_date": "2009-03-19",
        "last_observation_date": "2009-03-22",
        "data_arc_in_days": 3,
        "observations_used": 26,
        "orbit_uncertainty": "8",
        "minimum_orbit_intersection": ".0292645",
        "jupiter_tisserand_invariant": "3.346",
        "epoch_osculation": "2454910.5",
        "eccentricity": ".559203891252181",
        "semi_major_axis": "2.32341350631772",
        "inclination": "2.717760137310038",
        "ascending_node_longitude": "355.1380249546705",
        "orbital_period": "1293.564806347362",
        "perihelion_distance": "1.024151632596977",
        "perihelion_argument": "203.2826061017989",
        "aphelion_distance": "3.622675380038463",
        "perihelion_time": "2454926.648526948447",
        "mean_anomaly": "355.505853535196",
        "mean_motion": ".278300706878793",
        "equinox": "J2000",
        "orbit_class": {
            "orbit_class_type": "AMO",
            "orbit_class_description": "Near-Earth asteroid orbits similar to that of 1221 Amor",
            "orbit_class_range": "1.017 AU < q (perihelion) < 1.3 AU"
        }
    },
    "is_sentry_object": false
}